{
  "norad_id": 67537,
  "name": "STARLINK-36561",
  "history": [
    {
      "epoch": "2026-03-28T15:36:02.973024",
      "apogee_km": 345.0322218861111,
      "perigee_km": 342.97390259905296,
      "latitude_deg": -5.529190595970455,
      "longitude_deg": -83.89669664017856,
      "semi_major_axis_km": 6722.140062242582,
      "eccentricity": 0.0001531,
      "inclination_deg": 97.2858,
      "raan_deg": 333.4474,
      "arg_perigee_deg": 92.3816,
      "mean_anomaly_deg": 267.7625,
      "mean_motion_rev_day": 15.75220758
    },
    {
      "epoch": "2026-03-29T03:47:53.056608",
      "apogee_km": 344.69621507693864,
      "perigee_km": 342.39336689534684,
      "latitude_deg": -80.0598727598896,
      "longitude_deg": -35.107714880025014,
      "semi_major_axis_km": 6721.681790986142,
      "eccentricity": 0.0001713,
      "inclination_deg": 97.2844,
      "raan_deg": 333.9803,
      "arg_perigee_deg": 21.768,
      "mean_anomaly_deg": 338.3658,
      "mean_motion_rev_day": 15.75381854
    }
  ]
}